[{"OBJECT_NAME":"STARLINK-31115","OBJECT_ID":"2024-005B","EPOCH":"2026-03-09T22:00:01.999584","MEAN_MOTION":15.26665097,"ECCENTRICITY":0.00011717,"INCLINATION":42.999,"RA_OF_ASC_NODE":218.8459,"ARG_OF_PERICENTER":243.3855,"MEAN_ANOMALY":123.5218,"EPHEMERIS_TYPE":0,"CLASSIFICATION_TYPE":"U","NORAD_CAT_ID":58729,"ELEMENT_SET_NO":999,"REV_AT_EPOCH":568,"BSTAR":0.0038032429,"MEAN_MOTION_DOT":0.00102958,"MEAN_MOTION_DDOT":0},{"OBJECT_NAME":"CZ-4B DEB","OBJECT_ID":"2010-051E","EPOCH":"2026-03-08T22:01:50.125728","MEAN_MOTION":15.23766972,"ECCENTRICITY":0.00561086,"INCLINATION":97.769,"RA_OF_ASC_NODE":240.5013,"ARG_OF_PERICENTER":301.1291,"MEAN_ANOMALY":58.4449,"EPHEMERIS_TYPE":0,"CLASSIFICATION_TYPE":"U","NORAD_CAT_ID":38184,"ELEMENT_SET_NO":999,"REV_AT_EPOCH":82066,"BSTAR":0.0024566319,"MEAN_MOTION_DOT":0.00062123,"MEAN_MOTION_DDOT":0}]
